OBJECT_NAME,OBJECT_ID,EPOCH,MEAN_MOTION,ECCENTRICITY,INCLINATION,RA_OF_ASC_NODE,ARG_OF_PERICENTER,MEAN_ANOMALY,EPHEMERIS_TYPE,CLASSIFICATION_TYPE,NORAD_CAT_ID,ELEMENT_SET_NO,REV_AT_EPOCH,BSTAR,MEAN_MOTION_DOT,MEAN_MOTION_DDOT
STARLINK-35483,2025-245U,2026-06-27T02:44:21.465312,15.30195102,.00012485,53.1578,135.3572,86.3081,273.8063,0,U,66252,999,3796,.80624042E-3,.23592E-3,0
STARLINK-35486,2025-245V,2026-06-27T03:44:08.146176,15.31707370,.00012409,53.1577,134.9092,79.9029,280.2112,0,U,66253,999,3781,.60273565E-3,.18389E-3,0
STARLINK-35488,2025-245W,2026-06-27T08:00:01.999008,15.31653581,.0001283,53.1564,134.2846,76.3728,81.2696,0,U,66254,999,583,.21365E-2,.6643E-3,0
STARLINK-35616,2025-245X,2026-06-27T03:40:35.561568,15.30255047,.00015783,53.1575,135.6008,81.3746,278.7433,0,U,66255,999,3801,.24466406E-2,.72942E-3,0
STARLINK-35619,2025-245Y,2026-06-27T04:07:46.300224,15.30189188,.00010645,53.1560,135.0044,77.2098,282.9022,0,U,66256,999,3802,.10238441E-2,.30077E-3,0
STARLINK-35615,2025-245Z,2026-06-27T04:16:52.718880,15.30195135,.00011058,53.1575,135.0446,76.0169,284.0955,0,U,66257,999,3802,.10594319E-3,.2779E-4,0
STARLINK-34650,2025-245AA,2026-06-27T04:21:26.928288,15.30184903,.00014228,53.1581,135.0653,94.9707,265.1456,0,U,66258,999,3802,.37642835E-3,.10801E-3,0
STARLINK-35529,2025-245AB,2026-06-27T04:17:43.517760,15.31695261,.00013933,53.1571,135.0512,95.2997,264.8164,0,U,66259,999,3802,.41198643E-3,.12439E-3,0
STARLINK-35420,2025-245AC,2026-06-27T03:37:23.854656,15.31707306,.0001143,53.1578,134.8760,71.1759,288.9366,0,U,66260,999,3802,.71981729E-3,.22043E-3,0
STARLINK-35536,2025-245AD,2026-06-27T04:44:28.419360,15.31705006,.00012977,53.1579,134.4561,97.5879,262.5270,0,U,66261,999,3803,.71947237E-3,.2203E-3,0
STARLINK-35487,2025-245AE,2026-06-27T04:04:16.956480,15.31697531,.0001248,53.1568,134.9894,82.2072,277.9071,0,U,66262,999,3797,.46294825E-3,.14027E-3,0
STARLINK-35801,2025-247A,2026-06-27T08:24:24.464160,15.34391300,.0001045,53.1600,39.9291,76.8665,283.2454,0,U,66265,999,3785,.88346E-3,.29582E-3,0
STARLINK-35056,2025-247B,2026-06-27T08:20:42.930240,15.30262156,.000112,53.1615,42.0390,87.5505,272.5624,0,U,66266,999,3782,.70686E-3,.20674E-3,0
STARLINK-35550,2025-247C,2026-06-27T08:27:24.946848,15.34356842,.0001325,53.1603,39.8949,94.0463,266.0691,0,U,66267,999,3785,.69905E-3,.23283E-3,0
STARLINK-35069,2025-247D,2026-06-27T05:35:41.797824,15.34384998,.0000991,53.1602,42.0394,78.3248,281.7865,0,U,66268,999,3781,.86128E-3,.28821E-3,0
STARLINK-34910,2025-247E,2026-06-26T21:58:07.266432,15.34365216,.0001179,53.1600,42.1479,79.2169,280.8967,0,U,66269,999,3778,.66064E-3,.21986E-3,0
STARLINK-35757,2025-247F,2026-06-26T21:42:58.546656,15.34386182,.0000806,53.1597,42.1238,94.2478,265.8616,0,U,66270,999,3783,.99126E-3,.33249E-3,0
STARLINK-35745,2025-247G,2026-06-27T12:02:59.792352,15.34392898,.0001031,53.1603,40.8711,39.5690,320.5387,0,U,66271,999,3790,.76697E-3,.2562E-3,0
STARLINK-35741,2025-247H,2026-06-27T08:12:17.203392,15.34388090,.0001055,53.1598,39.8748,83.0447,277.0675,0,U,66272,999,3790,.70746E-3,.23593E-3,0
STARLINK-35730,2025-247J,2026-06-26T21:36:55.149120,15.34374477,.000089,53.1600,42.0982,59.8346,300.2745,0,U,66273,999,3783,.71221E-3,.23743E-3,0
STARLINK-35760,2025-247K,2026-06-26T21:40:39.307872,15.34397475,.0000766,53.1597,43.5314,99.7623,260.3466,0,U,66274,999,3776,.57573E-3,.19124E-3,0
STARLINK-35752,2025-247L,2026-06-27T07:33:43.401888,15.34388296,.0001019,53.1590,41.8333,93.4881,266.6238,0,U,66275,999,3782,.83401E-3,.27897E-3,0
STARLINK-35742,2025-247M,2026-06-26T22:00:01.998720,15.34389161,.0001354,53.1599,43.9020,84.5578,128.9684,0,U,66276,999,587,.21913E-3,.7032E-4,0
STARLINK-35708,2025-247N,2026-06-27T05:41:02.838624,15.34395244,.0001004,53.1594,40.6412,98.4726,261.6390,0,U,66277,999,3788,.8851E-3,.29642E-3,0
STARLINK-35713,2025-247P,2026-06-27T08:09:14.692032,15.34415678,.0000931,53.1601,39.8552,71.1170,288.9933,0,U,66278,999,3790,.1096E-2,.36853E-3,0
STARLINK-35724,2025-247Q,2026-06-26T21:37:37.094592,15.34376129,.0000886,53.1610,43.5142,90.1743,269.9361,0,U,66279,999,3776,.64577E-3,.21488E-3,0
STARLINK-35726,2025-247R,2026-06-27T08:18:20.268288,15.34368459,.0001148,53.1597,39.8981,83.4025,276.7109,0,U,66280,999,3785,.79264E-3,.26472E-3,0
STARLINK-35727,2025-247S,2026-06-26T21:55:47.802144,15.34370356,.0001182,53.1595,43.5952,67.9678,292.1450,0,U,66281,999,3776,.95295E-3,.31928E-3,0
STARLINK-35776,2025-247T,2026-06-26T21:49:44.380416,15.34375244,.0000856,53.1597,43.5675,99.7850,260.3250,0,U,66282,999,3776,.75857E-3,.2532E-3,0
STARLINK-35774,2025-247U,2026-06-26T22:01:51.356928,15.34369073,.0000921,53.1606,43.6200,85.6002,274.5105,0,U,66283,999,3776,.71558E-3,.23854E-3,0
