STARLINK-35483          
1 66252U 25245U   26178.11413733  .00023592  00000+0  80624-3 0  9999
2 66252  53.1578 135.3572 0001248  86.3081 273.8063 15.30195102 37960
STARLINK-35486          
1 66253U 25245V   26178.15564984  .00018389  00000+0  60274-3 0  9996
2 66253  53.1577 134.9092 0001240  79.9029 280.2112 15.31707370 37812
STARLINK-35488          
1 66254U 25245W   26178.33335647  .00066430  00000+0  21365-2 0  9996
2 66254  53.1564 134.2846 0001283  76.3728  81.2696 15.31653581  5830
STARLINK-35616          
1 66255U 25245X   26178.15318937  .00072942  00000+0  24466-2 0  9990
2 66255  53.1575 135.6008 0001578  81.3746 278.7433 15.30255047 38013
STARLINK-35619          
1 66256U 25245Y   26178.17206366  .00030077  00000+0  10238-2 0  9990
2 66256  53.1560 135.0044 0001064  77.2098 282.9022 15.30189188 38020
STARLINK-35615          
1 66257U 25245Z   26178.17838795  .00002779  00000+0  10594-3 0  9992
2 66257  53.1575 135.0446 0001105  76.0169 284.0955 15.30195135 38022
STARLINK-34650          
1 66258U 25245AA  26178.18156167  .00010801  00000+0  37643-3 0  9999
2 66258  53.1581 135.0653 0001422  94.9707 265.1456 15.30184903 38026
STARLINK-35529          
1 66259U 25245AB  26178.17897590  .00012439  00000+0  41199-3 0  9991
2 66259  53.1571 135.0512 0001393  95.2997 264.8164 15.31695261 38029
STARLINK-35420          
1 66260U 25245AC  26178.15097054  .00022043  00000+0  71982-3 0  9993
2 66260  53.1578 134.8760 0001143  71.1759 288.9366 15.31707306 38027
STARLINK-35536          
1 66261U 25245AD  26178.19755115  .00022030  00000+0  71947-3 0  9994
2 66261  53.1579 134.4561 0001297  97.5879 262.5270 15.31705006 38037
STARLINK-35487          
1 66262U 25245AE  26178.16964070  .00014027  00000+0  46295-3 0  9999
2 66262  53.1568 134.9894 0001248  82.2072 277.9071 15.31697531 37976
STARLINK-35801          
1 66265U 25247A   26178.35028315  .00029582  00000+0  88346-3 0  9993
2 66265  53.1600  39.9291 0001045  76.8665 283.2454 15.34391300 37853
STARLINK-35056          
1 66266U 25247B   26178.34771910  .00020674  00000+0  70686-3 0  9990
2 66266  53.1615  42.0390 0001120  87.5505 272.5624 15.30262156 37820
STARLINK-35550          
1 66267U 25247C   26178.35237207  .00023283  00000+0  69905-3 0  9999
2 66267  53.1603  39.8949 0001325  94.0463 266.0691 15.34356842 37850
STARLINK-35069          
1 66268U 25247D   26178.23312266  .00028821  00000+0  86128-3 0  9995
2 66268  53.1602  42.0394 0000991  78.3248 281.7865 15.34384998 37810
STARLINK-34910          
1 66269U 25247E   26177.91536188  .00021986  00000+0  66064-3 0  9993
2 66269  53.1600  42.1479 0001179  79.2169 280.8967 15.34365216 37786
STARLINK-35757          
1 66270U 25247F   26177.90484429  .00033249  00000+0  99126-3 0  9994
2 66270  53.1597  42.1238 0000806  94.2478 265.8616 15.34386182 37837
STARLINK-35745          
1 66271U 25247G   26178.50208093  .00025620  00000+0  76697-3 0  9995
2 66271  53.1603  40.8711 0001031  39.5690 320.5387 15.34392898 37909
STARLINK-35741          
1 66272U 25247H   26178.34186578  .00023593  00000+0  70746-3 0  9997
2 66272  53.1598  39.8748 0001055  83.0447 277.0675 15.34388090 37906
STARLINK-35730          
1 66273U 25247J   26177.90063830  .00023743  00000+0  71221-3 0  9990
2 66273  53.1600  42.0982 0000890  59.8346 300.2745 15.34374477 37835
STARLINK-35760          
1 66274U 25247K   26177.90323273  .00019124  00000+0  57573-3 0  9993
2 66274  53.1597  43.5314 0000766  99.7623 260.3466 15.34397475 37760
STARLINK-35752          
1 66275U 25247L   26178.31508567  .00027897  00000+0  83401-3 0  9996
2 66275  53.1590  41.8333 0001019  93.4881 266.6238 15.34388296 37829
STARLINK-35742          
1 66276U 25247M   26177.91668980  .00007032  00000+0  21913-3 0  9997
2 66276  53.1599  43.9020 0001354  84.5578 128.9684 15.34389161  5878
STARLINK-35708          
1 66277U 25247N   26178.23683841  .00029642  00000+0  88510-3 0  9994
2 66277  53.1594  40.6412 0001004  98.4726 261.6390 15.34395244 37888
STARLINK-35713          
1 66278U 25247P   26178.33975338  .00036853  00000+0  10960-2 0  9996
2 66278  53.1601  39.8552 0000931  71.1170 288.9933 15.34415678 37904
STARLINK-35724          
1 66279U 25247Q   26177.90112378  .00021488  00000+0  64577-3 0  9998
2 66279  53.1610  43.5142 0000886  90.1743 269.9361 15.34376129 37763
STARLINK-35726          
1 66280U 25247R   26178.34606792  .00026472  00000+0  79264-3 0  9994
2 66280  53.1597  39.8981 0001148  83.4025 276.7109 15.34368459 37851
STARLINK-35727          
1 66281U 25247S   26177.91374771  .00031928  00000+0  95295-3 0  9990
2 66281  53.1595  43.5952 0001182  67.9678 292.1450 15.34370356 37769
STARLINK-35776          
1 66282U 25247T   26177.90954144  .00025320  00000+0  75857-3 0  9999
2 66282  53.1597  43.5675 0000856  99.7850 260.3250 15.34375244 37762
STARLINK-35774          
1 66283U 25247U   26177.91795552  .00023854  00000+0  71558-3 0  9991
2 66283  53.1606  43.6200 0000921  85.6002 274.5105 15.34369073 37764
